SHIJIAN-6 02B (SJ-6 02B)
1 29506U 06046B   26065.29813354  .00002927  00000+0  23374-3 0  9993
2 29506  97.7052  95.0601 0014151  54.2043 306.0494 15.00979473 55309
FGRST (GLAST)           
1 33053U 08029A   26064.75271212  .00004713  00000+0  17920-3 0  9994
2 33053  25.5812 202.3523 0008277 181.7392 178.3118 15.23293595980045
SDO                     
1 36395U 10005A   26065.06234784 -.00000065  00000+0  00000+0 0  9995
2 36395  34.4340  87.9030 0000253  56.8087 299.6214  1.00275562 59024
CRYOSAT 2               
1 36508U 10013A   26065.25281805  .00000309  00000+0  75973-4 0  9993
2 36508  92.0224 252.3610 0002115  87.6328 272.5122 14.51906859843144
X-SAT                   
1 37389U 11015C   26065.23294118  .00000282  00000+0  13740-3 0  9996
2 37389  98.3424  47.2134 0012894 287.6527  72.3245 14.25171123773012
GCOM-W1 (SHIZUKU)       
1 38337U 12025A   26065.32053902  .00000929  00000+0  21625-3 0  9995
2 38337  98.2053   7.4319 0001469  75.0676  76.3209 14.57092680734056
NUSTAR                  
1 38358U 12031A   26065.33334491  .00011933  00000+0  70441-3 0  9998
2 38358   6.0260  85.0118 0007525  13.7941 231.8775 15.07665114  1303
NEOSSAT                 
1 39089U 13009D   26065.07213373  .00000277  00000+0  11039-3 0  9999
2 39089  98.4137 247.5648 0010811 188.2636 171.8374 14.35783244681944
BRITE-AUSTRIA           
1 39091U 13009F   26065.05221206  .00000291  00000+0  11379-3 0  9997
2 39091  98.3951 247.0507 0010152 181.8365 178.2786 14.36493427682249
IRIS                    
1 39197U 13033A   26065.05765335  .00001756  00000+0  20829-3 0  9994
2 39197  97.9396 264.6230 0023407 297.8722  62.0122 14.85631155685067
HISAKI (SPRINT-A)       
1 39253U 13049A   26065.16698757  .00000115  00000+0  64638-4 0  9994
2 39253  29.7222  23.7653 0136707 261.5511  96.9545 13.55530251617438
CASSIOPE                
1 39265U 13055A   26065.32525262  .00036073 -62092-6  43363-3 0  9992
2 39265  80.9188 190.9858 0316740  47.4252 315.3239 15.18457128652029
STSAT-3                 
1 39422U 13066G   26065.28175431  .00006152  00000+0  47251-3 0  9991
2 39422  97.6062  36.9703 0011835  26.2439 333.9383 15.02053203668759
SWARM B                 
1 39451U 13067A   26065.26326378  .00005927  00000+0  21707-3 0  9997
2 39451  87.7493  13.5264 0003699  89.1239 271.0434 15.27817981667528
SWARM A                 
1 39452U 13067B   26065.23359684  .00011904  00000+0  22199-3 0  9999
2 39452  87.3286  94.4387 0003051  93.8141 266.3467 15.48655535690308
SWARM C                 
1 39453U 13067C   26065.23348857  .00011807  00000+0  22019-3 0  9993
2 39453  87.3283  93.0203 0003057  93.8720 266.2890 15.48654858690268
BRITE-CA1 (TORONTO)     
1 40020U 14033L   26065.29924344  .00001869  00000+0  28908-3 0  9996
2 40020  97.9561 196.2372 0077792 245.9245 113.3810 14.72451664627077
