[{"OBJECT_NAME":"SHIJIAN-6 02B (SJ-6 02B)","OBJECT_ID":"2006-046B","EPOCH":"2026-03-06T07:09:18.737856","MEAN_MOTION":15.00979473,"ECCENTRICITY":0.00141518,"INCLINATION":97.7052,"RA_OF_ASC_NODE":95.0601,"ARG_OF_PERICENTER":54.2043,"MEAN_ANOMALY":306.0494,"EPHEMERIS_TYPE":0,"CLASSIFICATION_TYPE":"U","NORAD_CAT_ID":29506,"ELEMENT_SET_NO":999,"REV_AT_EPOCH":5530,"BSTAR":0.00023374347,"MEAN_MOTION_DOT":2.927e-5,"MEAN_MOTION_DDOT":0},{"OBJECT_NAME":"FGRST (GLAST)","OBJECT_ID":"2008-029A","EPOCH":"2026-03-05T18:03:54.327168","MEAN_MOTION":15.23293595,"ECCENTRICITY":0.00082779,"INCLINATION":25.5812,"RA_OF_ASC_NODE":202.3523,"ARG_OF_PERICENTER":181.7392,"MEAN_ANOMALY":178.3118,"EPHEMERIS_TYPE":0,"CLASSIFICATION_TYPE":"U","NORAD_CAT_ID":33053,"ELEMENT_SET_NO":999,"REV_AT_EPOCH":98004,"BSTAR":0.00017920497,"MEAN_MOTION_DOT":4.713e-5,"MEAN_MOTION_DDOT":0},{"OBJECT_NAME":"SDO","OBJECT_ID":"2010-005A","EPOCH":"2026-03-06T01:29:46.853376","MEAN_MOTION":1.00275562,"ECCENTRICITY":2.534e-5,"INCLINATION":34.434,"RA_OF_ASC_NODE":87.903,"ARG_OF_PERICENTER":56.8087,"MEAN_ANOMALY":299.6214,"EPHEMERIS_TYPE":0,"CLASSIFICATION_TYPE":"U","NORAD_CAT_ID":36395,"ELEMENT_SET_NO":999,"REV_AT_EPOCH":5902,"BSTAR":0,"MEAN_MOTION_DOT":-6.5e-7,"MEAN_MOTION_DDOT":0},{"OBJECT_NAME":"CRYOSAT 2","OBJECT_ID":"2010-013A","EPOCH":"2026-03-06T06:04:03.479520","MEAN_MOTION":14.51906859,"ECCENTRICITY":0.00021152,"INCLINATION":92.0224,"RA_OF_ASC_NODE":252.361,"ARG_OF_PERICENTER":87.6328,"MEAN_ANOMALY":272.5122,"EPHEMERIS_TYPE":0,"CLASSIFICATION_TYPE":"U","NORAD_CAT_ID":36508,"ELEMENT_SET_NO":999,"REV_AT_EPOCH":84314,"BSTAR":7.5973068e-5,"MEAN_MOTION_DOT":3.09e-6,"MEAN_MOTION_DDOT":0},{"OBJECT_NAME":"X-SAT","OBJECT_ID":"2011-015C","EPOCH":"2026-03-06T05:35:26.117952","MEAN_MOTION":14.25171123,"ECCENTRICITY":0.00128947,"INCLINATION":98.3424,"RA_OF_ASC_NODE":47.2134,"ARG_OF_PERICENTER":287.6527,"MEAN_ANOMALY":72.3245,"EPHEMERIS_TYPE":0,"CLASSIFICATION_TYPE":"U","NORAD_CAT_ID":37389,"ELEMENT_SET_NO":999,"REV_AT_EPOCH":77301,"BSTAR":0.00013740135,"MEAN_MOTION_DOT":2.82e-6,"MEAN_MOTION_DDOT":0},{"OBJECT_NAME":"GCOM-W1 (SHIZUKU)","OBJECT_ID":"2012-025A","EPOCH":"2026-03-06T07:41:34.571328","MEAN_MOTION":14.5709268,"ECCENTRICITY":0.00014699,"INCLINATION":98.2053,"RA_OF_ASC_NODE":7.4319,"ARG_OF_PERICENTER":75.0676,"MEAN_ANOMALY":76.3209,"EPHEMERIS_TYPE":0,"CLASSIFICATION_TYPE":"U","NORAD_CAT_ID":38337,"ELEMENT_SET_NO":999,"REV_AT_EPOCH":73405,"BSTAR":0.00021624921,"MEAN_MOTION_DOT":9.29e-6,"MEAN_MOTION_DDOT":0},{"OBJECT_NAME":"NUSTAR","OBJECT_ID":"2012-031A","EPOCH":"2026-03-06T08:00:01.000224","MEAN_MOTION":15.07665114,"ECCENTRICITY":0.00075252,"INCLINATION":6.026,"RA_OF_ASC_NODE":85.0118,"ARG_OF_PERICENTER":13.7941,"MEAN_ANOMALY":231.8775,"EPHEMERIS_TYPE":0,"CLASSIFICATION_TYPE":"U","NORAD_CAT_ID":38358,"ELEMENT_SET_NO":999,"REV_AT_EPOCH":130,"BSTAR":0.00070440659,"MEAN_MOTION_DOT":0.00011933,"MEAN_MOTION_DDOT":0},{"OBJECT_NAME":"NEOSSAT","OBJECT_ID":"2013-009D","EPOCH":"2026-03-06T01:43:52.354272","MEAN_MOTION":14.35783244,"ECCENTRICITY":0.00108116,"INCLINATION":98.4137,"RA_OF_ASC_NODE":247.5648,"ARG_OF_PERICENTER":188.2636,"MEAN_ANOMALY":171.8374,"EPHEMERIS_TYPE":0,"CLASSIFICATION_TYPE":"U","NORAD_CAT_ID":39089,"ELEMENT_SET_NO":999,"REV_AT_EPOCH":68194,"BSTAR":0.0001103928,"MEAN_MOTION_DOT":2.77e-6,"MEAN_MOTION_DDOT":0},{"OBJECT_NAME":"BRITE-AUSTRIA","OBJECT_ID":"2013-009F","EPOCH":"2026-03-06T01:15:11.121984","MEAN_MOTION":14.36493427,"ECCENTRICITY":0.00101524,"INCLINATION":98.3951,"RA_OF_ASC_NODE":247.0507,"ARG_OF_PERICENTER":181.8365,"MEAN_ANOMALY":178.2786,"EPHEMERIS_TYPE":0,"CLASSIFICATION_TYPE":"U","NORAD_CAT_ID":39091,"ELEMENT_SET_NO":999,"REV_AT_EPOCH":68224,"BSTAR":0.00011378893,"MEAN_MOTION_DOT":2.91e-6,"MEAN_MOTION_DDOT":0},{"OBJECT_NAME":"IRIS","OBJECT_ID":"2013-033A","EPOCH":"2026-03-06T01:23:01.249440","MEAN_MOTION":14.85631155,"ECCENTRICITY":0.00234074,"INCLINATION":97.9396,"RA_OF_ASC_NODE":264.623,"ARG_OF_PERICENTER":297.8722,"MEAN_ANOMALY":62.0122,"EPHEMERIS_TYPE":0,"CLASSIFICATION_TYPE":"U","NORAD_CAT_ID":39197,"ELEMENT_SET_NO":999,"REV_AT_EPOCH":68506,"BSTAR":0.00020828711,"MEAN_MOTION_DOT":1.756e-5,"MEAN_MOTION_DDOT":0},{"OBJECT_NAME":"HISAKI (SPRINT-A)","OBJECT_ID":"2013-049A","EPOCH":"2026-03-06T04:00:27.726048","MEAN_MOTION":13.55530251,"ECCENTRICITY":0.01367074,"INCLINATION":29.7222,"RA_OF_ASC_NODE":23.7653,"ARG_OF_PERICENTER":261.5511,"MEAN_ANOMALY":96.9545,"EPHEMERIS_TYPE":0,"CLASSIFICATION_TYPE":"U","NORAD_CAT_ID":39253,"ELEMENT_SET_NO":999,"REV_AT_EPOCH":61743,"BSTAR":6.4638475e-5,"MEAN_MOTION_DOT":1.15e-6,"MEAN_MOTION_DDOT":0},{"OBJECT_NAME":"CASSIOPE","OBJECT_ID":"2013-055A","EPOCH":"2026-03-06T07:48:21.826368","MEAN_MOTION":15.18457128,"ECCENTRICITY":0.03167403,"INCLINATION":80.9188,"RA_OF_ASC_NODE":190.9858,"ARG_OF_PERICENTER":47.4252,"MEAN_ANOMALY":315.3239,"EPHEMERIS_TYPE":0,"CLASSIFICATION_TYPE":"U","NORAD_CAT_ID":39265,"ELEMENT_SET_NO":999,"REV_AT_EPOCH":65202,"BSTAR":0.00043362787,"MEAN_MOTION_DOT":0.00036073,"MEAN_MOTION_DDOT":-6.20917e-7},{"OBJECT_NAME":"STSAT-3","OBJECT_ID":"2013-066G","EPOCH":"2026-03-06T06:45:43.572384","MEAN_MOTION":15.02053203,"ECCENTRICITY":0.00118355,"INCLINATION":97.6062,"RA_OF_ASC_NODE":36.9703,"ARG_OF_PERICENTER":26.2439,"MEAN_ANOMALY":333.9383,"EPHEMERIS_TYPE":0,"CLASSIFICATION_TYPE":"U","NORAD_CAT_ID":39422,"ELEMENT_SET_NO":999,"REV_AT_EPOCH":66875,"BSTAR":0.00047250515,"MEAN_MOTION_DOT":6.152e-5,"MEAN_MOTION_DDOT":0},{"OBJECT_NAME":"SWARM B","OBJECT_ID":"2013-067A","EPOCH":"2026-03-06T06:19:05.990592","MEAN_MOTION":15.27817981,"ECCENTRICITY":0.00036997,"INCLINATION":87.7493,"RA_OF_ASC_NODE":13.5264,"ARG_OF_PERICENTER":89.1239,"MEAN_ANOMALY":271.0434,"EPHEMERIS_TYPE":0,"CLASSIFICATION_TYPE":"U","NORAD_CAT_ID":39451,"ELEMENT_SET_NO":999,"REV_AT_EPOCH":66752,"BSTAR":0.00021707311,"MEAN_MOTION_DOT":5.927e-5,"MEAN_MOTION_DDOT":0},{"OBJECT_NAME":"SWARM A","OBJECT_ID":"2013-067B","EPOCH":"2026-03-06T05:36:22.766976","MEAN_MOTION":15.48655535,"ECCENTRICITY":0.00030519,"INCLINATION":87.3286,"RA_OF_ASC_NODE":94.4387,"ARG_OF_PERICENTER":93.8141,"MEAN_ANOMALY":266.3467,"EPHEMERIS_TYPE":0,"CLASSIFICATION_TYPE":"U","NORAD_CAT_ID":39452,"ELEMENT_SET_NO":999,"REV_AT_EPOCH":69030,"BSTAR":0.0002219928,"MEAN_MOTION_DOT":0.00011904,"MEAN_MOTION_DDOT":0},{"OBJECT_NAME":"SWARM C","OBJECT_ID":"2013-067C","EPOCH":"2026-03-06T05:36:13.412448","MEAN_MOTION":15.48654858,"ECCENTRICITY":0.00030571,"INCLINATION":87.3283,"RA_OF_ASC_NODE":93.0203,"ARG_OF_PERICENTER":93.872,"MEAN_ANOMALY":266.289,"EPHEMERIS_TYPE":0,"CLASSIFICATION_TYPE":"U","NORAD_CAT_ID":39453,"ELEMENT_SET_NO":999,"REV_AT_EPOCH":69026,"BSTAR":0.00022019032,"MEAN_MOTION_DOT":0.00011807,"MEAN_MOTION_DDOT":0},{"OBJECT_NAME":"BRITE-CA1 (TORONTO)","OBJECT_ID":"2014-033L","EPOCH":"2026-03-06T07:10:54.633216","MEAN_MOTION":14.72451664,"ECCENTRICITY":0.00777923,"INCLINATION":97.9561,"RA_OF_ASC_NODE":196.2372,"ARG_OF_PERICENTER":245.9245,"MEAN_ANOMALY":113.381,"EPHEMERIS_TYPE":0,"CLASSIFICATION_TYPE":"U","NORAD_CAT_ID":40020,"ELEMENT_SET_NO":999,"REV_AT_EPOCH":62707,"BSTAR":0.00028907672,"MEAN_MOTION_DOT":1.869e-5,"MEAN_MOTION_DDOT":0}]
